LEMUR-2-ALISIA          
1 62706U 25009DB  26068.73770453  .00009177  00000+0  72005-3 0  9995
2 62706  97.7037 151.6973 0006582 159.9869 200.1615 15.01147598 85230
STARLINK-36213          
1 67212U 25304W   26068.73342683  .00005035  00000+0  42943-3 0  9997
2 67212  70.0025 174.2497 0002639 272.6683  87.4174 14.98333554 13899
